start=new Date('2023-06-13T00:00:00.000Z').valueOf();
sats=[{"CENTER_NAME":"EARTH","PERIAPSIS":"332.916","MEAN_MOTION_DOT":"0.00222668","ARG_OF_PERICENTER":"322.5890","TLE_LINE2":"2 56698  43.0009 318.9666 0010224 322.5890 232.7065 15.76705639  1307","RA_OF_ASC_NODE":"318.9666","MEAN_ANOMALY":"232.7065","OBJECT_NAME":"STARLINK-30068","REV_AT_EPOCH":"130","SEMIMAJOR_AXIS":"6717.919","BSTAR":"0.00131130000000","RCS_SIZE":"LARGE","LAUNCH_DATE":"2023-05-19","EPHEMERIS_TYPE":"0","NORAD_CAT_ID":"56698","COUNTRY_CODE":"US","APOAPSIS":"346.652","DECAY_DATE":null,"MEAN_MOTION_DDOT":"0.0000000000000","OBJECT_ID":"2023-067L","INCLINATION":"43.0009","EPOCH":"2023-06-12T22:00:00.999936","MEAN_ELEMENT_THEORY":"SGP4","OBJECT_TYPE":"PAYLOAD","ELEMENT_SET_NO":"999","GP_ID":"233805287","PERIOD":"91.330","TLE_LINE1":"1 56698U 23067L   23163.91667824  .00222668  00000-0  13113-2 0  9997","CLASSIFICATION_TYPE":"U","FILE":"3931605","ECCENTRICITY":"0.00102240","SITE":"AFETR","MEAN_MOTION":"15.76705639","REF_FRAME":"TEME","TIME_SYSTEM":"UTC"},{"REV_AT_EPOCH":"130","OBJECT_NAME":"STARLINK-30127","SEMIMAJOR_AXIS":"6843.136","BSTAR":"-0.07087200000000","RCS_SIZE":"LARGE","EPHEMERIS_TYPE":"0","LAUNCH_DATE":"2023-05-19","NORAD_CAT_ID":"56699","COUNTRY_CODE":"US","DECAY_DATE":null,"APOAPSIS":"465.867","CENTER_NAME":"EARTH","PERIAPSIS":"464.134","MEAN_MOTION_DOT":"-0.02117555","ARG_OF_PERICENTER":"282.7162","TLE_LINE2":"2 56699  43.0002 320.9583 0001266 282.7162 183.1419 15.33628072  1307","RA_OF_ASC_NODE":"320.9583","MEAN_ANOMALY":"183.1419","PERIOD":"93.895","TLE_LINE1":"1 56699U 23067M   23163.91667824 -.02117555  00000-0 -70872-1 0  9994","CLASSIFICATION_TYPE":"U","ECCENTRICITY":"0.00012660","FILE":"3931605","SITE":"AFETR","MEAN_MOTION":"15.33628072","REF_FRAME":"TEME","TIME_SYSTEM":"UTC","OBJECT_ID":"2023-067M","MEAN_MOTION_DDOT":"0.0000000000000","INCLINATION":"43.0002","EPOCH":"2023-06-12T22:00:00.999936","MEAN_ELEMENT_THEORY":"SGP4","OBJECT_TYPE":"PAYLOAD","ELEMENT_SET_NO":"999","GP_ID":"233804969"},{"GP_ID":"233805091","ELEMENT_SET_NO":"999","OBJECT_TYPE":"PAYLOAD","MEAN_MOTION_DDOT":"0.0000000000000","OBJECT_ID":"2023-067N","INCLINATION":"43.0004","EPOCH":"2023-06-12T22:00:00.999936","MEAN_ELEMENT_THEORY":"SGP4","REF_FRAME":"TEME","TIME_SYSTEM":"UTC","MEAN_MOTION":"15.34286014","CLASSIFICATION_TYPE":"U","FILE":"3931605","ECCENTRICITY":"0.00011450","SITE":"AFETR","TLE_LINE1":"1 56700U 23067N   23163.91667824 -.02120916  00000-0 -69519-1 0  9998","PERIOD":"93.855","TLE_LINE2":"2 56700  43.0004 320.9367 0001145 281.0415 193.5357 15.34286014  1304","RA_OF_ASC_NODE":"320.9367","MEAN_ANOMALY":"193.5357","ARG_OF_PERICENTER":"281.0415","MEAN_MOTION_DOT":"-0.02120916","CENTER_NAME":"EARTH","PERIAPSIS":"462.261","NORAD_CAT_ID":"56700","COUNTRY_CODE":"US","DECAY_DATE":null,"APOAPSIS":"463.827","BSTAR":"-0.06951900000000","RCS_SIZE":"LARGE","LAUNCH_DATE":"2023-05-19","EPHEMERIS_TYPE":"0","OBJECT_NAME":"STARLINK-30053","REV_AT_EPOCH":"130","SEMIMAJOR_AXIS":"6841.179"},{"COUNTRY_CODE":"US","APOAPSIS":"462.560","DECAY_DATE":null,"NORAD_CAT_ID":"56701","RCS_SIZE":"LARGE","LAUNCH_DATE":"2023-05-19","EPHEMERIS_TYPE":"0","BSTAR":"-0.06629700000000","SEMIMAJOR_AXIS":"6839.840","REV_AT_EPOCH":"130","OBJECT_NAME":"STARLINK-30125","MEAN_ANOMALY":"212.1436","TLE_LINE2":"2 56701  43.0002 320.9228 0001250 271.3217 212.1436 15.34736441  1308","RA_OF_ASC_NODE":"320.9228","ARG_OF_PERICENTER":"271.3217","MEAN_MOTION_DOT":"-0.02058761","PERIAPSIS":"460.850","CENTER_NAME":"EARTH","TIME_SYSTEM":"UTC","REF_FRAME":"TEME","MEAN_MOTION":"15.34736441","SITE":"AFETR","CLASSIFICATION_TYPE":"U","FILE":"3931605","ECCENTRICITY":"0.00012500","PERIOD":"93.827","TLE_LINE1":"1 56701U 23067P   23163.91667824 -.02058761  00000-0 -66297-1 0  9997","GP_ID":"233805160","ELEMENT_SET_NO":"999","OBJECT_TYPE":"PAYLOAD","EPOCH":"2023-06-12T22:00:00.999936","MEAN_ELEMENT_THEORY":"SGP4","MEAN_MOTION_DDOT":"0.0000000000000","OBJECT_ID":"2023-067P","INCLINATION":"43.0002"},{"ELEMENT_SET_NO":"999","GP_ID":"233805033","INCLINATION":"43.0002","MEAN_MOTION_DDOT":"0.0000000000000","OBJECT_ID":"2023-067Q","MEAN_ELEMENT_THEORY":"SGP4","EPOCH":"2023-06-12T22:00:00.999936","OBJECT_TYPE":"PAYLOAD","MEAN_MOTION":"15.48284135","REF_FRAME":"TEME","TIME_SYSTEM":"UTC","TLE_LINE1":"1 56702U 23067Q   23163.91667824  .00165029  00000-0  29922-2 0  9995","PERIOD":"93.006","ECCENTRICITY":"0.00028840","FILE":"3931605","CLASSIFICATION_TYPE":"U","SITE":"AFETR","ARG_OF_PERICENTER":"298.1778","RA_OF_ASC_NODE":"320.7483","TLE_LINE2":"2 56702  43.0002 320.7483 0002884 298.1778 254.6143 15.48284135  1302","MEAN_ANOMALY":"254.6143","CENTER_NAME":"EARTH","PERIAPSIS":"419.786","MEAN_MOTION_DOT":"0.00165029","NORAD_CAT_ID":"56702","APOAPSIS":"423.708","DECAY_DATE":null,"COUNTRY_CODE":"US","OBJECT_NAME":"STARLINK-30117","REV_AT_EPOCH":"130","SEMIMAJOR_AXIS":"6799.882","BSTAR":"0.00299220000000","EPHEMERIS_TYPE":"0","LAUNCH_DATE":"2023-05-19","RCS_SIZE":"LARGE"},{"NORAD_CAT_ID":"56703","COUNTRY_CODE":"US","APOAPSIS":"458.172","DECAY_DATE":null,"REV_AT_EPOCH":"130","OBJECT_NAME":"STARLINK-30132","SEMIMAJOR_AXIS":"6835.344","BSTAR":"-0.06505500000000","RCS_SIZE":"LARGE","LAUNCH_DATE":"2023-05-19","EPHEMERIS_TYPE":"0","ARG_OF_PERICENTER":"286.3450","TLE_LINE2":"2 56703  43.0003 320.8795 0001409 286.3450 212.3397 15.36251006  1309","RA_OF_ASC_NODE":"320.8795","MEAN_ANOMALY":"212.3397","CENTER_NAME":"EARTH","PERIAPSIS":"456.246","MEAN_MOTION_DOT":"-0.02115476","MEAN_MOTION":"15.36251006","REF_FRAME":"TEME","TIME_SYSTEM":"UTC","TLE_LINE1":"1 56703U 23067R   23163.91667824 -.02115476  00000-0 -65055-1 0  9997","PERIOD":"93.735","CLASSIFICATION_TYPE":"U","FILE":"3931605","ECCENTRICITY":"0.00014090","SITE":"AFETR","ELEMENT_SET_NO":"999","GP_ID":"233805224","OBJECT_ID":"2023-067R","MEAN_MOTION_DDOT":"0.0000000000000","INCLINATION":"43.0003","EPOCH":"2023-06-12T22:00:00.999936","MEAN_ELEMENT_THEORY":"SGP4","OBJECT_TYPE":"PAYLOAD"},{"MEAN_MOTION_DOT":"-0.02489728","CENTER_NAME":"EARTH","PERIAPSIS":"443.985","TLE_LINE2":"2 56704  43.0002 320.7827 0001504 288.6323 249.3201 15.40372412  1308","RA_OF_ASC_NODE":"320.7827","MEAN_ANOMALY":"249.3201","ARG_OF_PERICENTER":"288.6323","BSTAR":"-0.06815200000000","RCS_SIZE":"LARGE","EPHEMERIS_TYPE":"0","LAUNCH_DATE":"2023-05-19","REV_AT_EPOCH":"130","OBJECT_NAME":"STARLINK-30066","SEMIMAJOR_AXIS":"6823.146","NORAD_CAT_ID":"56704","COUNTRY_CODE":"US","DECAY_DATE":null,"APOAPSIS":"446.038","OBJECT_TYPE":"PAYLOAD","OBJECT_ID":"2023-067S","MEAN_MOTION_DDOT":"0.0000000000000","INCLINATION":"43.0002","EPOCH":"2023-06-12T22:00:00.999936","MEAN_ELEMENT_THEORY":"SGP4","GP_ID":"233805346","ELEMENT_SET_NO":"999","CLASSIFICATION_TYPE":"U","ECCENTRICITY":"0.00015040","FILE":"3931605","SITE":"AFETR","TLE_LINE1":"1 56704U 23067S   23163.91667824 -.02489728  00000-0 -68152-1 0  9993","PERIOD":"93.484","REF_FRAME":"TEME","TIME_SYSTEM":"UTC","MEAN_MOTION":"15.40372412"},{"DECAY_DATE":null,"APOAPSIS":"383.935","COUNTRY_CODE":"US","NORAD_CAT_ID":"56705","SEMIMAJOR_AXIS":"6760.909","REV_AT_EPOCH":"130","OBJECT_NAME":"STARLINK-30080","LAUNCH_DATE":"2023-05-19","EPHEMERIS_TYPE":"0","RCS_SIZE":"LARGE","BSTAR":"-0.00720790000000","ARG_OF_PERICENTER":"280.9095","MEAN_ANOMALY":"127.8663","RA_OF_ASC_NODE":"319.3295","TLE_LINE2":"2 56705  43.0004 319.3295 0001717 280.9095 127.8663 15.61690918  1300","PERIAPSIS":"381.614","CENTER_NAME":"EARTH","MEAN_MOTION_DOT":"-0.00594637","MEAN_MOTION":"15.61690918","TIME_SYSTEM":"UTC","REF_FRAME":"TEME","PERIOD":"92.208","TLE_LINE1":"1 56705U 23067T   23163.91667824 -.00594637  00000-0 -72079-2 0  9992","SITE":"AFETR","FILE":"3931605","ECCENTRICITY":"0.00017170","CLASSIFICATION_TYPE":"U","ELEMENT_SET_NO":"999","GP_ID":"233804906","MEAN_ELEMENT_THEORY":"SGP4","EPOCH":"2023-06-12T22:00:00.999936","INCLINATION":"43.0004","OBJECT_ID":"2023-067T","MEAN_MOTION_DDOT":"0.0000000000000","OBJECT_TYPE":"PAYLOAD"},{"NORAD_CAT_ID":"56706","COUNTRY_CODE":"US","APOAPSIS":"453.826","DECAY_DATE":null,"BSTAR":"-0.06177900000000","RCS_SIZE":"LARGE","LAUNCH_DATE":"2023-05-19","EPHEMERIS_TYPE":"0","REV_AT_EPOCH":"130","OBJECT_NAME":"STARLINK-30079","SEMIMAJOR_AXIS":"6831.493","TLE_LINE2":"2 56706  43.0003 320.8436 0000686 292.2528 220.8012 15.37550407  1308","RA_OF_ASC_NODE":"320.8436","MEAN_ANOMALY":"220.8012","ARG_OF_PERICENTER":"292.2528","MEAN_MOTION_DOT":"-0.02097526","CENTER_NAME":"EARTH","PERIAPSIS":"452.889","REF_FRAME":"TEME","TIME_SYSTEM":"UTC","MEAN_MOTION":"15.37550407","CLASSIFICATION_TYPE":"U","FILE":"3931605","ECCENTRICITY":"0.00006860","SITE":"AFETR","TLE_LINE1":"1 56706U 23067U   23163.91667824 -.02097526  00000-0 -61779-1 0  9994","PERIOD":"93.655","GP_ID":"233805288","ELEMENT_SET_NO":"999","OBJECT_TYPE":"PAYLOAD","MEAN_MOTION_DDOT":"0.0000000000000","OBJECT_ID":"2023-067U","INCLINATION":"43.0003","EPOCH":"2023-06-12T22:00:00.999936","MEAN_ELEMENT_THEORY":"SGP4"},{"RCS_SIZE":"LARGE","LAUNCH_DATE":"2023-05-19","EPHEMERIS_TYPE":"0","BSTAR":"-0.06383700000000","SEMIMAJOR_AXIS":"6833.387","OBJECT_NAME":"STARLINK-30070","REV_AT_EPOCH":"130","COUNTRY_CODE":"US","APOAPSIS":"456.016","DECAY_DATE":null,"NORAD_CAT_ID":"56707","MEAN_MOTION_DOT":"-0.02120281","PERIAPSIS":"454.488","CENTER_NAME":"EARTH","MEAN_ANOMALY":"214.7614","TLE_LINE2":"2 56707  43.0003 320.8605 0001118 291.2731 214.7614 15.36910922  1304","RA_OF_ASC_NODE":"320.8605","ARG_OF_PERICENTER":"291.2731","SITE":"AFETR","CLASSIFICATION_TYPE":"U","FILE":"3931605","ECCENTRICITY":"0.00011180","TLE_LINE1":"1 56707U 23067V   23163.91667824 -.02120281  00000-0 -63837-1 0  9997","PERIOD":"93.694","TIME_SYSTEM":"UTC","REF_FRAME":"TEME","MEAN_MOTION":"15.36910922","OBJECT_TYPE":"PAYLOAD","EPOCH":"2023-06-12T22:00:00.999936","MEAN_ELEMENT_THEORY":"SGP4","MEAN_MOTION_DDOT":"0.0000000000000","OBJECT_ID":"2023-067V","INCLINATION":"43.0003","GP_ID":"233804970","ELEMENT_SET_NO":"999"}];
